[{"OBJECT_NAME":"STARLINK-36486","OBJECT_ID":"2026-003B","EPOCH":"2026-03-09T11:21:54.966240","MEAN_MOTION":15.27566267,"ECCENTRICITY":0.00013175,"INCLINATION":43.0011,"RA_OF_ASC_NODE":228.0389,"ARG_OF_PERICENTER":268.1166,"MEAN_ANOMALY":91.9535,"EPHEMERIS_TYPE":0,"CLASSIFICATION_TYPE":"U","NORAD_CAT_ID":67335,"ELEMENT_SET_NO":999,"REV_AT_EPOCH":879,"BSTAR":0.00079221935,"MEAN_MOTION_DOT":0.00021593,"MEAN_MOTION_DDOT":0},{"OBJECT_NAME":"OBJECT D","OBJECT_ID":"2026-023D","EPOCH":"2026-03-09T17:19:13.762848","MEAN_MOTION":15.22920595,"ECCENTRICITY":0.00208003,"INCLINATION":96.6418,"RA_OF_ASC_NODE":141.6791,"ARG_OF_PERICENTER":127.3034,"MEAN_ANOMALY":233.0105,"EPHEMERIS_TYPE":0,"CLASSIFICATION_TYPE":"U","NORAD_CAT_ID":67677,"ELEMENT_SET_NO":999,"REV_AT_EPOCH":485,"BSTAR":0.00050428287,"MEAN_MOTION_DOT":0.00011849,"MEAN_MOTION_DDOT":0}]
